[{"OBJECT_NAME":"NETSAT-1","OBJECT_ID":"2020-068W","EPOCH":"2026-03-09T22:42:38.711232","MEAN_MOTION":15.32042482,"ECCENTRICITY":0.00057337,"INCLINATION":97.8751,"RA_OF_ASC_NODE":63.2583,"ARG_OF_PERICENTER":18.5877,"MEAN_ANOMALY":341.5572,"EPHEMERIS_TYPE":0,"CLASSIFICATION_TYPE":"U","NORAD_CAT_ID":46506,"ELEMENT_SET_NO":999,"REV_AT_EPOCH":30009,"BSTAR":0.00059222329,"MEAN_MOTION_DOT":0.00018269,"MEAN_MOTION_DDOT":0},{"OBJECT_NAME":"STARLINK-32431","OBJECT_ID":"2024-175P","EPOCH":"2026-03-09T14:59:40.959168","MEAN_MOTION":15.30183964,"ECCENTRICITY":0.0001135,"INCLINATION":53.1608,"RA_OF_ASC_NODE":194.3378,"ARG_OF_PERICENTER":61.6601,"MEAN_ANOMALY":298.4514,"EPHEMERIS_TYPE":0,"CLASSIFICATION_TYPE":"U","NORAD_CAT_ID":61256,"ELEMENT_SET_NO":999,"REV_AT_EPOCH":8144,"BSTAR":7.6409e-5,"MEAN_MOTION_DOT":1.903e-5,"MEAN_MOTION_DDOT":0}]
